[Satellite]
VERSION=1.1
NAME=SICRAL 1
NICKNAME=SICRAL 1
TLE1=1 26694U 01005A   11058.88214265  .00000083  00000-0  00000+0 0  7745
TLE2=2 26694   2.8653  71.8292 0004049 299.9721 119.2991  1.00269675 36881
